CYGNUS NG-23            
1 65616U 25208A   26001.21026978  .00014823  00000+0  27654-3 0  9999
2 65616  51.6328  46.0577 0007509 326.8003  33.2513 15.48996227   227
DRAGONFLY               
1 65729U 98067XH  26001.27501871  .00318807  00000+0  16113-2 0  9999
2 65729  51.6245  35.2005 0008816  30.5720 329.5793 15.80084100 16247
1998-067XK              
1 65731U 98067XK  26001.30404314  .00150970  00000+0  12073-2 0  9996
2 65731  51.6291  37.6849 0005265   5.8201 354.2856 15.70077378 16217
RSP-03                  
1 65732U 98067XL  26001.26465979  .00220561  00000+0  14462-2 0  9994
2 65732  51.6264  36.6519 0006422  13.0504 347.0660 15.74527074 16236
GHS-01                  
1 65733U 98067XM  25365.48362391  .00449903  00000+0  17624-2 0  9991
2 65733  51.6279  38.1728 0009735  30.7902 329.3671 15.85182050 16148
YOTSUBA-KULOVER         
1 65941U 98067XN  26001.11299979  .00102824  00000+0  11291-2 0  9993
2 65941  51.6299  42.4134 0003385  34.3149 325.8063 15.62384021 12888
BOTAN                   
1 65942U 98067XP  26001.19413257  .00168920  00000+0  14921-2 0  9991
2 65942  51.6275  40.7004 0004300  24.2300 335.8897 15.67599419 12919
E-KAGAKU-1              
1 65943U 98067XQ  25365.40936882  .00099002  00000+0  10914-2 0  9994
2 65943  51.6389  45.9720 0002126  46.3499 313.7671 15.62302585 12776
HRC MONOBLOCK CAMERA    
1 66052U 98067XR  26001.31874134  .00047061  00000+0  67605-3 0  9993
2 66052  51.6311  43.7839 0001542 289.9686  70.1139 15.55619240 11889
HTV-X1                  
1 66174U 25241A   26001.21026978  .00014823  00000+0  27654-3 0  9996
2 66174  51.6328  46.0577 0007509 326.8003  33.2513 15.48996227   519
SZ-21 MODULE            
1 66515U 25246C   26001.02753310  .00038909  00000+0  40785-3 0  9997
2 66515  41.4762 258.2958 0002791  10.0529 350.0366 15.63632096  7465
SHENZHOU-22             
1 66645U 25272A   26001.18178321  .00025606  00000+0  31027-3 0  9999
2 66645  41.4666 258.6061 0009940 195.4734 164.5802 15.59999525266996
