CCSDS_OMM_VERS = 2.0
CREATION_DATE  = 
ORIGINATOR     = 

OBJECT_NAME    = CYGNUS NG-23
OBJECT_ID      = 2025-208A
CENTER_NAME    = EARTH
REF_FRAME      = TEME
TIME_SYSTEM    = UTC
MEAN_ELEMENT_THEORY = SGP/SGP4

EPOCH          = 2026-01-01T05:02:47.308992
MEAN_MOTION    = 15.48996227
ECCENTRICITY   = .00075099
INCLINATION    = 51.6328
RA_OF_ASC_NODE = 46.0577
ARG_OF_PERICENTER = 326.8003
MEAN_ANOMALY   = 33.2513

EPHEMERIS_TYPE = 0
CLASSIFICATION_TYPE = U
NORAD_CAT_ID   = 65616
ELEMENT_SET_NO = 999
REV_AT_EPOCH   = 22
BSTAR          = .27653728E-3
MEAN_MOTION_DOT = .14823E-3
MEAN_MOTION_DDOT = 0

CCSDS_OMM_VERS = 2.0
CREATION_DATE  = 
ORIGINATOR     = 

OBJECT_NAME    = DRAGONFLY
OBJECT_ID      = 1998-067XH
CENTER_NAME    = EARTH
REF_FRAME      = TEME
TIME_SYSTEM    = UTC
MEAN_ELEMENT_THEORY = SGP/SGP4

EPOCH          = 2026-01-01T06:36:01.616544
MEAN_MOTION    = 15.80084100
ECCENTRICITY   = .00088167
INCLINATION    = 51.6245
RA_OF_ASC_NODE = 35.2005
ARG_OF_PERICENTER = 30.5720
MEAN_ANOMALY   = 329.5793

EPHEMERIS_TYPE = 0
CLASSIFICATION_TYPE = U
NORAD_CAT_ID   = 65729
ELEMENT_SET_NO = 999
REV_AT_EPOCH   = 1624
BSTAR          = .16113166E-2
MEAN_MOTION_DOT = .318807E-2
MEAN_MOTION_DDOT = 0

CCSDS_OMM_VERS = 2.0
CREATION_DATE  = 
ORIGINATOR     = 

OBJECT_NAME    = 1998-067XK
OBJECT_ID      = 1998-067XK
CENTER_NAME    = EARTH
REF_FRAME      = TEME
TIME_SYSTEM    = UTC
MEAN_ELEMENT_THEORY = SGP/SGP4

EPOCH          = 2026-01-01T07:17:49.327296
MEAN_MOTION    = 15.70077378
ECCENTRICITY   = .00052655
INCLINATION    = 51.6291
RA_OF_ASC_NODE = 37.6849
ARG_OF_PERICENTER = 5.8201
MEAN_ANOMALY   = 354.2856

EPHEMERIS_TYPE = 0
CLASSIFICATION_TYPE = U
NORAD_CAT_ID   = 65731
ELEMENT_SET_NO = 999
REV_AT_EPOCH   = 1621
BSTAR          = .12072845E-2
MEAN_MOTION_DOT = .15097E-2
MEAN_MOTION_DDOT = 0

CCSDS_OMM_VERS = 2.0
CREATION_DATE  = 
ORIGINATOR     = 

OBJECT_NAME    = RSP-03
OBJECT_ID      = 1998-067XL
CENTER_NAME    = EARTH
REF_FRAME      = TEME
TIME_SYSTEM    = UTC
MEAN_ELEMENT_THEORY = SGP/SGP4

EPOCH          = 2026-01-01T06:21:06.605856
MEAN_MOTION    = 15.74527074
ECCENTRICITY   = .00064222
INCLINATION    = 51.6264
RA_OF_ASC_NODE = 36.6519
ARG_OF_PERICENTER = 13.0504
MEAN_ANOMALY   = 347.0660

EPHEMERIS_TYPE = 0
CLASSIFICATION_TYPE = U
NORAD_CAT_ID   = 65732
ELEMENT_SET_NO = 999
REV_AT_EPOCH   = 1623
BSTAR          = .1446191E-2
MEAN_MOTION_DOT = .220561E-2
MEAN_MOTION_DDOT = 0

CCSDS_OMM_VERS = 2.0
CREATION_DATE  = 
ORIGINATOR     = 

OBJECT_NAME    = GHS-01
OBJECT_ID      = 1998-067XM
CENTER_NAME    = EARTH
REF_FRAME      = TEME
TIME_SYSTEM    = UTC
MEAN_ELEMENT_THEORY = SGP/SGP4

EPOCH          = 2025-12-31T11:36:25.105824
MEAN_MOTION    = 15.85182050
ECCENTRICITY   = .00097359
INCLINATION    = 51.6279
RA_OF_ASC_NODE = 38.1728
ARG_OF_PERICENTER = 30.7902
MEAN_ANOMALY   = 329.3671

EPHEMERIS_TYPE = 0
CLASSIFICATION_TYPE = U
NORAD_CAT_ID   = 65733
ELEMENT_SET_NO = 999
REV_AT_EPOCH   = 1614
BSTAR          = .17623853E-2
MEAN_MOTION_DOT = .449903E-2
MEAN_MOTION_DDOT = 0

CCSDS_OMM_VERS = 2.0
CREATION_DATE  = 
ORIGINATOR     = 

OBJECT_NAME    = YOTSUBA-KULOVER
OBJECT_ID      = 1998-067XN
CENTER_NAME    = EARTH
REF_FRAME      = TEME
TIME_SYSTEM    = UTC
MEAN_ELEMENT_THEORY = SGP/SGP4

EPOCH          = 2026-01-01T02:42:43.181856
MEAN_MOTION    = 15.62384021
ECCENTRICITY   = .00033853
INCLINATION    = 51.6299
RA_OF_ASC_NODE = 42.4134
ARG_OF_PERICENTER = 34.3149
MEAN_ANOMALY   = 325.8063

EPHEMERIS_TYPE = 0
CLASSIFICATION_TYPE = U
NORAD_CAT_ID   = 65941
ELEMENT_SET_NO = 999
REV_AT_EPOCH   = 1288
BSTAR          = .11290621E-2
MEAN_MOTION_DOT = .102824E-2
MEAN_MOTION_DDOT = 0

CCSDS_OMM_VERS = 2.0
CREATION_DATE  = 
ORIGINATOR     = 

OBJECT_NAME    = BOTAN
OBJECT_ID      = 1998-067XP
CENTER_NAME    = EARTH
REF_FRAME      = TEME
TIME_SYSTEM    = UTC
MEAN_ELEMENT_THEORY = SGP/SGP4

EPOCH          = 2026-01-01T04:39:33.054048
MEAN_MOTION    = 15.67599419
ECCENTRICITY   = .00043007
INCLINATION    = 51.6275
RA_OF_ASC_NODE = 40.7004
ARG_OF_PERICENTER = 24.2300
MEAN_ANOMALY   = 335.8897

EPHEMERIS_TYPE = 0
CLASSIFICATION_TYPE = U
NORAD_CAT_ID   = 65942
ELEMENT_SET_NO = 999
REV_AT_EPOCH   = 1291
BSTAR          = .14920744E-2
MEAN_MOTION_DOT = .16892E-2
MEAN_MOTION_DDOT = 0

CCSDS_OMM_VERS = 2.0
CREATION_DATE  = 
ORIGINATOR     = 

OBJECT_NAME    = E-KAGAKU-1
OBJECT_ID      = 1998-067XQ
CENTER_NAME    = EARTH
REF_FRAME      = TEME
TIME_SYSTEM    = UTC
MEAN_ELEMENT_THEORY = SGP/SGP4

EPOCH          = 2025-12-31T09:49:29.466048
MEAN_MOTION    = 15.62302585
ECCENTRICITY   = .00021264
INCLINATION    = 51.6389
RA_OF_ASC_NODE = 45.9720
ARG_OF_PERICENTER = 46.3499
MEAN_ANOMALY   = 313.7671

EPHEMERIS_TYPE = 0
CLASSIFICATION_TYPE = U
NORAD_CAT_ID   = 65943
ELEMENT_SET_NO = 999
REV_AT_EPOCH   = 1277
BSTAR          = .10914141E-2
MEAN_MOTION_DOT = .99002E-3
MEAN_MOTION_DDOT = 0

CCSDS_OMM_VERS = 2.0
CREATION_DATE  = 
ORIGINATOR     = 

OBJECT_NAME    = HRC MONOBLOCK CAMERA
OBJECT_ID      = 1998-067XR
CENTER_NAME    = EARTH
REF_FRAME      = TEME
TIME_SYSTEM    = UTC
MEAN_ELEMENT_THEORY = SGP/SGP4

EPOCH          = 2026-01-01T07:38:59.251776
MEAN_MOTION    = 15.55619240
ECCENTRICITY   = .00015425
INCLINATION    = 51.6311
RA_OF_ASC_NODE = 43.7839
ARG_OF_PERICENTER = 289.9686
MEAN_ANOMALY   = 70.1139

EPHEMERIS_TYPE = 0
CLASSIFICATION_TYPE = U
NORAD_CAT_ID   = 66052
ELEMENT_SET_NO = 999
REV_AT_EPOCH   = 1188
BSTAR          = .67605029E-3
MEAN_MOTION_DOT = .47061E-3
MEAN_MOTION_DDOT = 0

CCSDS_OMM_VERS = 2.0
CREATION_DATE  = 
ORIGINATOR     = 

OBJECT_NAME    = HTV-X1
OBJECT_ID      = 2025-241A
CENTER_NAME    = EARTH
REF_FRAME      = TEME
TIME_SYSTEM    = UTC
MEAN_ELEMENT_THEORY = SGP/SGP4

EPOCH          = 2026-01-01T05:02:47.308992
MEAN_MOTION    = 15.48996227
ECCENTRICITY   = .00075099
INCLINATION    = 51.6328
RA_OF_ASC_NODE = 46.0577
ARG_OF_PERICENTER = 326.8003
MEAN_ANOMALY   = 33.2513

EPHEMERIS_TYPE = 0
CLASSIFICATION_TYPE = U
NORAD_CAT_ID   = 66174
ELEMENT_SET_NO = 999
REV_AT_EPOCH   = 51
BSTAR          = .27653728E-3
MEAN_MOTION_DOT = .14823E-3
MEAN_MOTION_DDOT = 0

CCSDS_OMM_VERS = 2.0
CREATION_DATE  = 
ORIGINATOR     = 

OBJECT_NAME    = SZ-21 MODULE
OBJECT_ID      = 2025-246C
CENTER_NAME    = EARTH
REF_FRAME      = TEME
TIME_SYSTEM    = UTC
MEAN_ELEMENT_THEORY = SGP/SGP4

EPOCH          = 2026-01-01T00:39:38.859840
MEAN_MOTION    = 15.63632096
ECCENTRICITY   = .00027915
INCLINATION    = 41.4762
RA_OF_ASC_NODE = 258.2958
ARG_OF_PERICENTER = 10.0529
MEAN_ANOMALY   = 350.0366

EPHEMERIS_TYPE = 0
CLASSIFICATION_TYPE = U
NORAD_CAT_ID   = 66515
ELEMENT_SET_NO = 999
REV_AT_EPOCH   = 746
BSTAR          = .40784758E-3
MEAN_MOTION_DOT = .38909E-3
MEAN_MOTION_DDOT = 0

CCSDS_OMM_VERS = 2.0
CREATION_DATE  = 
ORIGINATOR     = 

OBJECT_NAME    = SHENZHOU-22
OBJECT_ID      = 2025-272A
CENTER_NAME    = EARTH
REF_FRAME      = TEME
TIME_SYSTEM    = UTC
MEAN_ELEMENT_THEORY = SGP/SGP4

EPOCH          = 2026-01-01T04:21:46.069344
MEAN_MOTION    = 15.59999525
ECCENTRICITY   = .00099403
INCLINATION    = 41.4666
RA_OF_ASC_NODE = 258.6061
ARG_OF_PERICENTER = 195.4734
MEAN_ANOMALY   = 164.5802

EPHEMERIS_TYPE = 0
CLASSIFICATION_TYPE = U
NORAD_CAT_ID   = 66645
ELEMENT_SET_NO = 999
REV_AT_EPOCH   = 26699
BSTAR          = .3102677E-3
MEAN_MOTION_DOT = .25606E-3
MEAN_MOTION_DDOT = 0

